[{"OBJECT_NAME":"ONEWEB-0206","OBJECT_ID":"2021-031T","EPOCH":"2025-12-22T21:33:19.238976","MEAN_MOTION":13.14503563,"ECCENTRICITY":0.0002024,"INCLINATION":87.9017,"RA_OF_ASC_NODE":324.8085,"ARG_OF_PERICENTER":80.2939,"MEAN_ANOMALY":279.842,"EPHEMERIS_TYPE":0,"CLASSIFICATION_TYPE":"U","NORAD_CAT_ID":48227,"ELEMENT_SET_NO":999,"REV_AT_EPOCH":22506,"BSTAR":0.00058567,"MEAN_MOTION_DOT":2.3e-6,"MEAN_MOTION_DDOT":0},{"OBJECT_NAME":"ONEWEB-0182","OBJECT_ID":"2021-031U","EPOCH":"2025-12-23T04:44:53.476224","MEAN_MOTION":13.14503544,"ECCENTRICITY":0.00018393,"INCLINATION":87.8994,"RA_OF_ASC_NODE":324.7756,"ARG_OF_PERICENTER":89.9358,"MEAN_ANOMALY":270.1983,"EPHEMERIS_TYPE":0,"CLASSIFICATION_TYPE":"U","NORAD_CAT_ID":48228,"ELEMENT_SET_NO":999,"REV_AT_EPOCH":22531,"BSTAR":-0.00012432616,"MEAN_MOTION_DOT":-3.3e-7,"MEAN_MOTION_DDOT":0},{"OBJECT_NAME":"ONEWEB-0186","OBJECT_ID":"2021-031V","EPOCH":"2025-12-22T19:52:49.473696","MEAN_MOTION":13.14503678,"ECCENTRICITY":0.00016431,"INCLINATION":87.901,"RA_OF_ASC_NODE":324.8277,"ARG_OF_PERICENTER":83.408,"MEAN_ANOMALY":276.7236,"EPHEMERIS_TYPE":0,"CLASSIFICATION_TYPE":"U","NORAD_CAT_ID":48229,"ELEMENT_SET_NO":999,"REV_AT_EPOCH":22521,"BSTAR":0.00037186035,"MEAN_MOTION_DOT":1.51e-6,"MEAN_MOTION_DDOT":0},{"OBJECT_NAME":"ONEWEB-0181","OBJECT_ID":"2021-031W","EPOCH":"2025-12-23T04:28:53.817600","MEAN_MOTION":13.1450319,"ECCENTRICITY":0.00016223,"INCLINATION":87.8987,"RA_OF_ASC_NODE":324.8089,"ARG_OF_PERICENTER":80.5868,"MEAN_ANOMALY":279.5445,"EPHEMERIS_TYPE":0,"CLASSIFICATION_TYPE":"U","NORAD_CAT_ID":48230,"ELEMENT_SET_NO":999,"REV_AT_EPOCH":22511,"BSTAR":-0.00079962845,"MEAN_MOTION_DOT":-2.84e-6,"MEAN_MOTION_DDOT":0},{"OBJECT_NAME":"ONEWEB-0188","OBJECT_ID":"2021-031X","EPOCH":"2025-12-22T11:07:36.504480","MEAN_MOTION":13.14500096,"ECCENTRICITY":0.00017618,"INCLINATION":87.8996,"RA_OF_ASC_NODE":324.9497,"ARG_OF_PERICENTER":84.4723,"MEAN_ANOMALY":275.6608,"EPHEMERIS_TYPE":0,"CLASSIFICATION_TYPE":"U","NORAD_CAT_ID":48231,"ELEMENT_SET_NO":999,"REV_AT_EPOCH":22492,"BSTAR":0.00010504063,"MEAN_MOTION_DOT":5.2e-7,"MEAN_MOTION_DDOT":0},{"OBJECT_NAME":"ONEWEB-0220","OBJECT_ID":"2021-031Y","EPOCH":"2025-12-22T23:02:20.898240","MEAN_MOTION":13.14504631,"ECCENTRICITY":0.00016115,"INCLINATION":87.9012,"RA_OF_ASC_NODE":324.8005,"ARG_OF_PERICENTER":88.6222,"MEAN_ANOMALY":271.5092,"EPHEMERIS_TYPE":0,"CLASSIFICATION_TYPE":"U","NORAD_CAT_ID":48232,"ELEMENT_SET_NO":999,"REV_AT_EPOCH":22525,"BSTAR":-0.00049071759,"MEAN_MOTION_DOT":-1.69e-6,"MEAN_MOTION_DDOT":0},{"OBJECT_NAME":"ONEWEB-0165","OBJECT_ID":"2021-031Z","EPOCH":"2025-12-22T16:25:01.843104","MEAN_MOTION":13.14504126,"ECCENTRICITY":0.00015441,"INCLINATION":87.8993,"RA_OF_ASC_NODE":324.8805,"ARG_OF_PERICENTER":73.1732,"MEAN_ANOMALY":286.9567,"EPHEMERIS_TYPE":0,"CLASSIFICATION_TYPE":"U","NORAD_CAT_ID":48233,"ELEMENT_SET_NO":999,"REV_AT_EPOCH":22517,"BSTAR":0.0004339977,"MEAN_MOTION_DOT":1.74e-6,"MEAN_MOTION_DDOT":0},{"OBJECT_NAME":"ONEWEB-0199","OBJECT_ID":"2021-031AA","EPOCH":"2025-12-23T04:49:27.619968","MEAN_MOTION":13.14500964,"ECCENTRICITY":0.00019398,"INCLINATION":87.9003,"RA_OF_ASC_NODE":324.7535,"ARG_OF_PERICENTER":82.6255,"MEAN_ANOMALY":277.5095,"EPHEMERIS_TYPE":0,"CLASSIFICATION_TYPE":"U","NORAD_CAT_ID":48234,"ELEMENT_SET_NO":999,"REV_AT_EPOCH":22514,"BSTAR":0.00038186526,"MEAN_MOTION_DOT":1.54e-6,"MEAN_MOTION_DDOT":0},{"OBJECT_NAME":"ONEWEB-0203","OBJECT_ID":"2021-031AB","EPOCH":"2025-12-23T04:35:45.070368","MEAN_MOTION":13.14503009,"ECCENTRICITY":0.00018249,"INCLINATION":87.9003,"RA_OF_ASC_NODE":324.7558,"ARG_OF_PERICENTER":74.3989,"MEAN_ANOMALY":285.7342,"EPHEMERIS_TYPE":0,"CLASSIFICATION_TYPE":"U","NORAD_CAT_ID":48235,"ELEMENT_SET_NO":999,"REV_AT_EPOCH":22515,"BSTAR":-0.00059322914,"MEAN_MOTION_DOT":-2.07e-6,"MEAN_MOTION_DDOT":0},{"OBJECT_NAME":"ONEWEB-0197","OBJECT_ID":"2021-031AC","EPOCH":"2025-12-23T03:59:00.437856","MEAN_MOTION":13.14501247,"ECCENTRICITY":0.00019,"INCLINATION":87.8999,"RA_OF_ASC_NODE":324.759,"ARG_OF_PERICENTER":93.6813,"MEAN_ANOMALY":266.4534,"EPHEMERIS_TYPE":0,"CLASSIFICATION_TYPE":"U","NORAD_CAT_ID":48236,"ELEMENT_SET_NO":999,"REV_AT_EPOCH":22506,"BSTAR":-0.00040848173,"MEAN_MOTION_DOT":-1.39e-6,"MEAN_MOTION_DDOT":0},{"OBJECT_NAME":"ONEWEB-0194","OBJECT_ID":"2021-031AD","EPOCH":"2025-12-22T11:03:01.728288","MEAN_MOTION":13.14500478,"ECCENTRICITY":0.00019939,"INCLINATION":87.9005,"RA_OF_ASC_NODE":324.9171,"ARG_OF_PERICENTER":79.941,"MEAN_ANOMALY":280.1944,"EPHEMERIS_TYPE":0,"CLASSIFICATION_TYPE":"U","NORAD_CAT_ID":48237,"ELEMENT_SET_NO":999,"REV_AT_EPOCH":22514,"BSTAR":-5.0463023e-5,"MEAN_MOTION_DOT":-6.0e-8,"MEAN_MOTION_DDOT":0},{"OBJECT_NAME":"ONEWEB-0193","OBJECT_ID":"2021-031AE","EPOCH":"2025-12-23T03:52:21.423648","MEAN_MOTION":13.14501039,"ECCENTRICITY":0.00022423,"INCLINATION":87.9,"RA_OF_ASC_NODE":324.7718,"ARG_OF_PERICENTER":78.4269,"MEAN_ANOMALY":281.7113,"EPHEMERIS_TYPE":0,"CLASSIFICATION_TYPE":"U","NORAD_CAT_ID":48238,"ELEMENT_SET_NO":999,"REV_AT_EPOCH":22518,"BSTAR":-0.00043441901,"MEAN_MOTION_DOT":-1.48e-6,"MEAN_MOTION_DDOT":0},{"OBJECT_NAME":"ONEWEB-0191","OBJECT_ID":"2021-031AF","EPOCH":"2025-12-22T20:49:55.926624","MEAN_MOTION":13.1450296,"ECCENTRICITY":0.0001893,"INCLINATION":87.9004,"RA_OF_ASC_NODE":324.8214,"ARG_OF_PERICENTER":84.3146,"MEAN_ANOMALY":275.8199,"EPHEMERIS_TYPE":0,"CLASSIFICATION_TYPE":"U","NORAD_CAT_ID":48239,"ELEMENT_SET_NO":999,"REV_AT_EPOCH":22500,"BSTAR":-0.00036689,"MEAN_MOTION_DOT":-1.23e-6,"MEAN_MOTION_DDOT":0},{"OBJECT_NAME":"ONEWEB-0195","OBJECT_ID":"2021-031AG","EPOCH":"2025-12-22T20:16:48.864000","MEAN_MOTION":13.14502412,"ECCENTRICITY":0.0001453,"INCLINATION":87.9013,"RA_OF_ASC_NODE":324.8229,"ARG_OF_PERICENTER":74.777,"MEAN_ANOMALY":285.352,"EPHEMERIS_TYPE":0,"CLASSIFICATION_TYPE":"U","NORAD_CAT_ID":48240,"ELEMENT_SET_NO":999,"REV_AT_EPOCH":22498,"BSTAR":0.00033969182,"MEAN_MOTION_DOT":1.39e-6,"MEAN_MOTION_DDOT":0},{"OBJECT_NAME":"ONEWEB-0201","OBJECT_ID":"2021-031AH","EPOCH":"2025-12-22T19:59:54.332736","MEAN_MOTION":13.14503314,"ECCENTRICITY":0.00016067,"INCLINATION":87.9,"RA_OF_ASC_NODE":324.8624,"ARG_OF_PERICENTER":92.3848,"MEAN_ANOMALY":267.7466,"EPHEMERIS_TYPE":0,"CLASSIFICATION_TYPE":"U","NORAD_CAT_ID":48241,"ELEMENT_SET_NO":999,"REV_AT_EPOCH":22521,"BSTAR":0.00041494921,"MEAN_MOTION_DOT":1.67e-6,"MEAN_MOTION_DDOT":0},{"OBJECT_NAME":"ONEWEB-0207","OBJECT_ID":"2021-031AJ","EPOCH":"2025-12-23T04:39:11.510208","MEAN_MOTION":13.14503584,"ECCENTRICITY":0.0001659,"INCLINATION":87.9014,"RA_OF_ASC_NODE":324.7548,"ARG_OF_PERICENTER":89.6209,"MEAN_ANOMALY":270.5111,"EPHEMERIS_TYPE":0,"CLASSIFICATION_TYPE":"U","NORAD_CAT_ID":48242,"ELEMENT_SET_NO":999,"REV_AT_EPOCH":22517,"BSTAR":-5.473899e-5,"MEAN_MOTION_DOT":-8.0e-8,"MEAN_MOTION_DDOT":0},{"OBJECT_NAME":"ONEWEB-0208","OBJECT_ID":"2021-031AK","EPOCH":"2025-12-23T04:12:55.542240","MEAN_MOTION":13.14501743,"ECCENTRICITY":0.00015675,"INCLINATION":87.9,"RA_OF_ASC_NODE":324.7719,"ARG_OF_PERICENTER":76.4282,"MEAN_ANOMALY":283.7022,"EPHEMERIS_TYPE":0,"CLASSIFICATION_TYPE":"U","NORAD_CAT_ID":48243,"ELEMENT_SET_NO":999,"REV_AT_EPOCH":22518,"BSTAR":-0.0005426602,"MEAN_MOTION_DOT":-1.88e-6,"MEAN_MOTION_DDOT":0},{"OBJECT_NAME":"ONEWEB-0200","OBJECT_ID":"2021-031AL","EPOCH":"2025-12-22T16:22:45.352704","MEAN_MOTION":13.14502101,"ECCENTRICITY":0.00016613,"INCLINATION":87.9003,"RA_OF_ASC_NODE":324.8597,"ARG_OF_PERICENTER":82.6992,"MEAN_ANOMALY":277.4327,"EPHEMERIS_TYPE":0,"CLASSIFICATION_TYPE":"U","NORAD_CAT_ID":48244,"ELEMENT_SET_NO":999,"REV_AT_EPOCH":22504,"BSTAR":0.00058291683,"MEAN_MOTION_DOT":2.29e-6,"MEAN_MOTION_DDOT":0},{"OBJECT_NAME":"ONEWEB-0217","OBJECT_ID":"2021-031AM","EPOCH":"2025-12-23T03:43:13.130976","MEAN_MOTION":13.14500117,"ECCENTRICITY":0.00015273,"INCLINATION":87.9007,"RA_OF_ASC_NODE":324.7612,"ARG_OF_PERICENTER":75.375,"MEAN_ANOMALY":284.7549,"EPHEMERIS_TYPE":0,"CLASSIFICATION_TYPE":"U","NORAD_CAT_ID":48245,"ELEMENT_SET_NO":999,"REV_AT_EPOCH":22505,"BSTAR":0.00029926782,"MEAN_MOTION_DOT":1.24e-6,"MEAN_MOTION_DDOT":0},{"OBJECT_NAME":"ONEWEB-0211","OBJECT_ID":"2021-045A","EPOCH":"2025-12-23T03:00:06.487776","MEAN_MOTION":13.16137755,"ECCENTRICITY":0.00016684,"INCLINATION":87.9008,"RA_OF_ASC_NODE":294.2499,"ARG_OF_PERICENTER":61.4563,"MEAN_ANOMALY":298.6735,"EPHEMERIS_TYPE":0,"CLASSIFICATION_TYPE":"U","NORAD_CAT_ID":48767,"ELEMENT_SET_NO":999,"REV_AT_EPOCH":22128,"BSTAR":0.00073209138,"MEAN_MOTION_DOT":2.91e-6,"MEAN_MOTION_DDOT":0},{"OBJECT_NAME":"ONEWEB-0223","OBJECT_ID":"2021-045B","EPOCH":"2025-12-23T04:43:07.363200","MEAN_MOTION":13.15549714,"ECCENTRICITY":0.00019354,"INCLINATION":87.9009,"RA_OF_ASC_NODE":294.3019,"ARG_OF_PERICENTER":63.0517,"MEAN_ANOMALY":297.0811,"EPHEMERIS_TYPE":0,"CLASSIFICATION_TYPE":"U","NORAD_CAT_ID":48768,"ELEMENT_SET_NO":999,"REV_AT_EPOCH":22126,"BSTAR":0.0001786231,"MEAN_MOTION_DOT":8.0e-7,"MEAN_MOTION_DDOT":0},{"OBJECT_NAME":"ONEWEB-0230","OBJECT_ID":"2021-045C","EPOCH":"2025-12-23T02:12:30.585888","MEAN_MOTION":13.15548055,"ECCENTRICITY":0.00018743,"INCLINATION":87.9006,"RA_OF_ASC_NODE":294.3516,"ARG_OF_PERICENTER":79.6074,"MEAN_ANOMALY":280.5267,"EPHEMERIS_TYPE":0,"CLASSIFICATION_TYPE":"U","NORAD_CAT_ID":48769,"ELEMENT_SET_NO":999,"REV_AT_EPOCH":22151,"BSTAR":-0.0011476898,"MEAN_MOTION_DOT":-4.19e-6,"MEAN_MOTION_DDOT":0},{"OBJECT_NAME":"ONEWEB-0237","OBJECT_ID":"2021-045D","EPOCH":"2025-12-23T05:35:35.241792","MEAN_MOTION":13.15548995,"ECCENTRICITY":0.00019639,"INCLINATION":87.9005,"RA_OF_ASC_NODE":294.3239,"ARG_OF_PERICENTER":69.1224,"MEAN_ANOMALY":291.0116,"EPHEMERIS_TYPE":0,"CLASSIFICATION_TYPE":"U","NORAD_CAT_ID":48770,"ELEMENT_SET_NO":999,"REV_AT_EPOCH":22125,"BSTAR":-0.00040981246,"MEAN_MOTION_DOT":-1.41e-6,"MEAN_MOTION_DDOT":0}]
